STARLINK-3325
1 50843U 22001AS  26092.83335647  .00467336  00000+0  39859-2 0  9997
2 50843  53.2180  55.2805 0000874  91.4274  12.5991 15.67552001  5680
